{
"type": "FeatureCollection",
"name": "흡연_topN",
"crs": { "type": "name", "properties": { "name": "urn:ogc:def:crs:OGC:1.3:CRS84" } },
"features": [
{ "type": "Feature", "properties": { "parcel_idx": 23236, "from_rep": 0, "PNU": "1117012500104220000", "JIBUN": "422 대", "지목": "대", "면적": 11934.4497, "내접폭": 73.2987, "법정동코드": "1117012500", "국유_건수": 0, "국유_지분면적": 0.0, "국유_지분율": 0.0, "국유_지번일치": 0, "점수": 0.7703, "커버기여": 70.0307, "누적커버율": 0.0304, "순위": 1 }, "geometry": { "type": "Point", "coordinates": [ 126.966206429964075, 37.528640727796706 ] } },
{ "type": "Feature", "properties": { "parcel_idx": 7278, "from_rep": 0, "PNU": "1117010400100870001", "JIBUN": "87-1대", "지목": "대", "면적": 1163.0166, "내접폭": 29.4472, "법정동코드": "1117010400", "국유_건수": 0, "국유_지분면적": 0.0, "국유_지분율": 0.0, "국유_지번일치": 0, "점수": 0.6625, "커버기여": 66.2182, "누적커버율": 0.0591, "순위": 2 }, "geometry": { "type": "Point", "coordinates": [ 126.971857383708354, 37.54377901896931 ] } },
{ "type": "Feature", "properties": { "parcel_idx": 21463, "from_rep": 0, "PNU": "1117012100100050034", "JIBUN": "5-34대", "지목": "대", "면적": 69.9249, "내접폭": 7.961, "법정동코드": "1117012100", "국유_건수": 0, "국유_지분면적": 0.0, "국유_지분율": 0.0, "국유_지번일치": 0, "점수": 0.5841, "커버기여": 62.0606, "누적커버율": 0.0861, "순위": 3 }, "geometry": { "type": "Point", "coordinates": [ 126.961902341466285, 37.53855042809559 ] } },
{ "type": "Feature", "properties": { "parcel_idx": 22933, "from_rep": 0, "PNU": "1117012400102280001", "JIBUN": "228-1 도", "지목": "도", "면적": 7287.0156, "내접폭": 36.7465, "법정동코드": "1117012400", "국유_건수": 0, "국유_지분면적": 0.0, "국유_지분율": 0.0, "국유_지번일치": 0, "점수": 0.7793, "커버기여": 61.4257, "누적커버율": 0.1128, "순위": 4 }, "geometry": { "type": "Point", "coordinates": [ 126.973671043268823, 37.534769436334841 ] } },
{ "type": "Feature", "properties": { "parcel_idx": 9144, "from_rep": 1, "PNU": "1117010700100430014", "JIBUN": "43-14대", "지목": "대", "면적": 129.2519, "내접폭": 8.893, "법정동코드": "1117010700", "국유_건수": 0, "국유_지분면적": 0.0, "국유_지분율": 0.0, "국유_지번일치": 0, "점수": 0.6252, "커버기여": 59.5856, "누적커버율": 0.1386, "순위": 5 }, "geometry": { "type": "Point", "coordinates": [ 126.971970952719801, 37.551596793862267 ] } },
{ "type": "Feature", "properties": { "parcel_idx": 29463, "from_rep": 0, "PNU": "1117013000101270007", "JIBUN": "127-7대", "지목": "대", "면적": 675.7227, "내접폭": 23.6139, "법정동코드": "1117013000", "국유_건수": 0, "국유_지분면적": 0.0, "국유_지분율": 0.0, "국유_지번일치": 0, "점수": 0.6235, "커버기여": 59.5019, "누적커버율": 0.1645, "순위": 6 }, "geometry": { "type": "Point", "coordinates": [ 126.994715499582199, 37.534411852751631 ] } },
{ "type": "Feature", "properties": { "parcel_idx": 25442, "from_rep": 0, "PNU": "1117012900104070000", "JIBUN": "407대", "지목": "대", "면적": 10561.9861, "내접폭": 67.7017, "법정동코드": "1117012900", "국유_건수": 0, "국유_지분면적": 0.0, "국유_지분율": 0.0, "국유_지번일치": 0, "점수": 0.5171, "커버기여": 55.0456, "누적커버율": 0.1884, "순위": 7 }, "geometry": { "type": "Point", "coordinates": [ 126.973223113113789, 37.521794910059128 ] } },
{ "type": "Feature", "properties": { "parcel_idx": 16223, "from_rep": 0, "PNU": "1117011200100570015", "JIBUN": "57-15도", "지목": "도", "면적": 5154.2738, "내접폭": 14.2725, "법정동코드": "1117011200", "국유_건수": 0, "국유_지분면적": 0.0, "국유_지분율": 0.0, "국유_지번일치": 0, "점수": 0.425, "커버기여": 52.6282, "누적커버율": 0.2112, "순위": 8 }, "geometry": { "type": "Point", "coordinates": [ 126.968691058609664, 37.538912823159819 ] } },
{ "type": "Feature", "properties": { "parcel_idx": 26632, "from_rep": 0, "PNU": "1117013000104470014", "JIBUN": "447-14대", "지목": "대", "면적": 182.942, "내접폭": 12.6326, "법정동코드": "1117013000", "국유_건수": 0, "국유_지분면적": 0.0, "국유_지분율": 0.0, "국유_지번일치": 0, "점수": 0.5639, "커버기여": 51.7644, "누적커버율": 0.2337, "순위": 9 }, "geometry": { "type": "Point", "coordinates": [ 126.987926918715942, 37.534951954350888 ] } },
{ "type": "Feature", "properties": { "parcel_idx": 31843, "from_rep": 0, "PNU": "1117013100107280002", "JIBUN": "728-2대", "지목": "대", "면적": 2637.002, "내접폭": 33.0777, "법정동코드": "1117013100", "국유_건수": 0, "국유_지분면적": 0.0, "국유_지분율": 0.0, "국유_지번일치": 0, "점수": 0.4363, "커버기여": 51.6801, "누적커버율": 0.2561, "순위": 10 }, "geometry": { "type": "Point", "coordinates": [ 127.001956691489525, 37.539457557448436 ] } },
{ "type": "Feature", "properties": { "parcel_idx": 33489, "from_rep": 0, "PNU": "1117013100101390000", "JIBUN": "139 도", "지목": "도", "면적": 16862.8516, "내접폭": 60.5229, "법정동코드": "1117013100", "국유_건수": 0, "국유_지분면적": 0.0, "국유_지분율": 0.0, "국유_지번일치": 0, "점수": 0.482, "커버기여": 49.7188, "누적커버율": 0.2777, "순위": 11 }, "geometry": { "type": "Point", "coordinates": [ 127.007160933730944, 37.532970152323415 ] } },
{ "type": "Feature", "properties": { "parcel_idx": 6965, "from_rep": 0, "PNU": "1117010200100010237", "JIBUN": "1-237대", "지목": "대", "면적": 97.397, "내접폭": 8.4222, "법정동코드": "1117010200", "국유_건수": 0, "국유_지분면적": 0.0, "국유_지분율": 0.0, "국유_지번일치": 0, "점수": 0.3029, "커버기여": 46.2665, "누적커버율": 0.2978, "순위": 12 }, "geometry": { "type": "Point", "coordinates": [ 126.983398746767278, 37.546123803575597 ] } },
{ "type": "Feature", "properties": { "parcel_idx": 28591, "from_rep": 0, "PNU": "1117013000107290000", "JIBUN": "729대", "지목": "대", "면적": 37567.7492, "내접폭": 139.1115, "법정동코드": "1117013000", "국유_건수": 0, "국유_지분면적": 0.0, "국유_지분율": 0.0, "국유_지번일치": 0, "점수": 0.4189, "커버기여": 44.7287, "누적커버율": 0.3172, "순위": 13 }, "geometry": { "type": "Point", "coordinates": [ 126.98837867725598, 37.54017780185228 ] } },
{ "type": "Feature", "properties": { "parcel_idx": 24558, "from_rep": 0, "PNU": "1117012800100650001", "JIBUN": "65-1 대", "지목": "대", "면적": 44844.8659, "내접폭": 189.906, "법정동코드": "1117012800", "국유_건수": 0, "국유_지분면적": 0.0, "국유_지분율": 0.0, "국유_지번일치": 0, "점수": 0.2682, "커버기여": 43.3787, "누적커버율": 0.336, "순위": 14 }, "geometry": { "type": "Point", "coordinates": [ 126.966208868466921, 37.523234715783623 ] } },
{ "type": "Feature", "properties": { "parcel_idx": 19037, "from_rep": 1, "PNU": "1117011800100750001", "JIBUN": "75-1대", "지목": "대", "면적": 189.6998, "내접폭": 9.5169, "법정동코드": "1117011800", "국유_건수": 0, "국유_지분면적": 0.0, "국유_지분율": 0.0, "국유_지번일치": 0, "점수": 0.3285, "커버기여": 42.3865, "누적커버율": 0.3544, "순위": 15 }, "geometry": { "type": "Point", "coordinates": [ 126.952887462420094, 37.533942509659148 ] } },
{ "type": "Feature", "properties": { "parcel_idx": 1533, "from_rep": 0, "PNU": "1117010100101050056", "JIBUN": "105-56도", "지목": "도", "면적": 2257.0538, "내접폭": 4.7766, "법정동코드": "1117010100", "국유_건수": 0, "국유_지분면적": 0.0, "국유_지분율": 0.0, "국유_지번일치": 0, "점수": 0.406, "커버기여": 42.1906, "누적커버율": 0.3727, "순위": 16 }, "geometry": { "type": "Point", "coordinates": [ 126.977061165887193, 37.548285139833318 ] } },
{ "type": "Feature", "properties": { "parcel_idx": 23499, "from_rep": 0, "PNU": "1117012500100730001", "JIBUN": "73-1대", "지목": "대", "면적": 293.742, "내접폭": 15.2566, "법정동코드": "1117012500", "국유_건수": 0, "국유_지분면적": 0.0, "국유_지분율": 0.0, "국유_지번일치": 0, "점수": 0.3964, "커버기여": 41.253, "누적커버율": 0.3906, "순위": 17 }, "geometry": { "type": "Point", "coordinates": [ 126.971409852388391, 37.530444105231965 ] } },
{ "type": "Feature", "properties": { "parcel_idx": 13439, "from_rep": 0, "PNU": "1117011000100010170", "JIBUN": "1-170도", "지목": "도", "면적": 872.0861, "내접폭": 8.8353, "법정동코드": "1117011000", "국유_건수": 0, "국유_지분면적": 0.0, "국유_지분율": 0.0, "국유_지번일치": 0, "점수": 0.2893, "커버기여": 41.1723, "누적커버율": 0.4085, "순위": 18 }, "geometry": { "type": "Point", "coordinates": [ 126.965745739155096, 37.546480401801311 ] } },
{ "type": "Feature", "properties": { "parcel_idx": 25652, "from_rep": 0, "PNU": "1117012900104030000", "JIBUN": "403대", "지목": "대", "면적": 19952.8196, "내접폭": 89.5546, "법정동코드": "1117012900", "국유_건수": 0, "국유_지분면적": 0.0, "국유_지분율": 0.0, "국유_지번일치": 0, "점수": 0.4127, "커버기여": 40.5513, "누적커버율": 0.4261, "순위": 19 }, "geometry": { "type": "Point", "coordinates": [ 126.978879999997318, 37.519093048130401 ] } },
{ "type": "Feature", "properties": { "parcel_idx": 29136, "from_rep": 0, "PNU": "1117013000100050020", "JIBUN": "5-20대", "지목": "대", "면적": 264.8337, "내접폭": 14.8638, "법정동코드": "1117013000", "국유_건수": 0, "국유_지분면적": 0.0, "국유_지분율": 0.0, "국유_지번일치": 0, "점수": 0.3965, "커버기여": 39.7209, "누적커버율": 0.4434, "순위": 20 }, "geometry": { "type": "Point", "coordinates": [ 126.995167682114513, 37.540358474809928 ] } }
]
}
