{
"type": "FeatureCollection",
"name": "흡연_topN",
"crs": { "type": "name", "properties": { "name": "urn:ogc:def:crs:OGC:1.3:CRS84" } },
"features": [
{ "type": "Feature", "properties": { "parcel_idx": 23236, "from_rep": 0, "PNU": "1117012500104220000", "JIBUN": "422 대", "지목": "대", "면적": 11934.4497, "내접폭": 73.2987, "법정동코드": "1117012500", "국유_건수": 0, "국유_지분면적": 0.0, "국유_지분율": 0.0, "국유_지번일치": 0, "점수": 0.746, "커버기여": 68.118, "누적커버율": 0.0304, "순위": 1 }, "geometry": { "type": "Point", "coordinates": [ 126.966206429964075, 37.528640727796706 ] } },
{ "type": "Feature", "properties": { "parcel_idx": 7278, "from_rep": 0, "PNU": "1117010400100870001", "JIBUN": "87-1대", "지목": "대", "면적": 1163.0166, "내접폭": 29.4472, "법정동코드": "1117010400", "국유_건수": 0, "국유_지분면적": 0.0, "국유_지분율": 0.0, "국유_지번일치": 0, "점수": 0.6439, "커버기여": 64.5519, "누적커버율": 0.0592, "순위": 2 }, "geometry": { "type": "Point", "coordinates": [ 126.971857383708354, 37.54377901896931 ] } },
{ "type": "Feature", "properties": { "parcel_idx": 21463, "from_rep": 0, "PNU": "1117012100100050034", "JIBUN": "5-34대", "지목": "대", "면적": 69.9249, "내접폭": 7.961, "법정동코드": "1117012100", "국유_건수": 0, "국유_지분면적": 0.0, "국유_지분율": 0.0, "국유_지번일치": 0, "점수": 0.5668, "커버기여": 60.3164, "누적커버율": 0.0861, "순위": 3 }, "geometry": { "type": "Point", "coordinates": [ 126.961902341466285, 37.53855042809559 ] } },
{ "type": "Feature", "properties": { "parcel_idx": 22933, "from_rep": 0, "PNU": "1117012400102280001", "JIBUN": "228-1 도", "지목": "도", "면적": 7287.0156, "내접폭": 36.7465, "법정동코드": "1117012400", "국유_건수": 0, "국유_지분면적": 0.0, "국유_지분율": 0.0, "국유_지번일치": 0, "점수": 0.7547, "커버기여": 59.7379, "누적커버율": 0.1127, "순위": 4 }, "geometry": { "type": "Point", "coordinates": [ 126.973671043268823, 37.534769436334841 ] } },
{ "type": "Feature", "properties": { "parcel_idx": 29463, "from_rep": 0, "PNU": "1117013000101270007", "JIBUN": "127-7대", "지목": "대", "면적": 675.7227, "내접폭": 23.6139, "법정동코드": "1117013000", "국유_건수": 0, "국유_지분면적": 0.0, "국유_지분율": 0.0, "국유_지번일치": 0, "점수": 0.6057, "커버기여": 57.9794, "누적커버율": 0.1386, "순위": 5 }, "geometry": { "type": "Point", "coordinates": [ 126.994715499582199, 37.534411852751631 ] } },
{ "type": "Feature", "properties": { "parcel_idx": 9144, "from_rep": 1, "PNU": "1117010700100430014", "JIBUN": "43-14대", "지목": "대", "면적": 129.2519, "내접폭": 8.893, "법정동코드": "1117010700", "국유_건수": 0, "국유_지분면적": 0.0, "국유_지분율": 0.0, "국유_지번일치": 0, "점수": 0.6071, "커버기여": 57.902, "누적커버율": 0.1644, "순위": 6 }, "geometry": { "type": "Point", "coordinates": [ 126.971970952719801, 37.551596793862267 ] } },
{ "type": "Feature", "properties": { "parcel_idx": 25442, "from_rep": 0, "PNU": "1117012900104070000", "JIBUN": "407대", "지목": "대", "면적": 10561.9861, "내접폭": 67.7017, "법정동코드": "1117012900", "국유_건수": 0, "국유_지분면적": 0.0, "국유_지분율": 0.0, "국유_지번일치": 0, "점수": 0.5019, "커버기여": 53.5347, "누적커버율": 0.1883, "순위": 7 }, "geometry": { "type": "Point", "coordinates": [ 126.973223113113789, 37.521794910059128 ] } },
{ "type": "Feature", "properties": { "parcel_idx": 16223, "from_rep": 0, "PNU": "1117011200100570015", "JIBUN": "57-15도", "지목": "도", "면적": 5154.2738, "내접폭": 14.2725, "법정동코드": "1117011200", "국유_건수": 0, "국유_지분면적": 0.0, "국유_지분율": 0.0, "국유_지번일치": 0, "점수": 0.4127, "커버기여": 51.2278, "누적커버율": 0.2112, "순위": 8 }, "geometry": { "type": "Point", "coordinates": [ 126.968691058609664, 37.538912823159819 ] } },
{ "type": "Feature", "properties": { "parcel_idx": 26580, "from_rep": 0, "PNU": "1117013000104470009", "JIBUN": "447-9대", "지목": "대", "면적": 163.5284, "내접폭": 12.3568, "법정동코드": "1117013000", "국유_건수": 0, "국유_지분면적": 0.0, "국유_지분율": 0.0, "국유_지번일치": 0, "점수": 0.5405, "커버기여": 50.7551, "누적커버율": 0.2338, "순위": 9 }, "geometry": { "type": "Point", "coordinates": [ 126.987926860615843, 37.535312354644063 ] } },
{ "type": "Feature", "properties": { "parcel_idx": 31843, "from_rep": 0, "PNU": "1117013100107280002", "JIBUN": "728-2대", "지목": "대", "면적": 2637.002, "내접폭": 33.0777, "법정동코드": "1117013100", "국유_건수": 0, "국유_지분면적": 0.0, "국유_지분율": 0.0, "국유_지번일치": 0, "점수": 0.4236, "커버기여": 50.2962, "누적커버율": 0.2562, "순위": 10 }, "geometry": { "type": "Point", "coordinates": [ 127.001956691489525, 37.539457557448436 ] } },
{ "type": "Feature", "properties": { "parcel_idx": 32865, "from_rep": 0, "PNU": "1117013100100760029", "JIBUN": "76-29대", "지목": "대", "면적": 108.0676, "내접폭": 6.3711, "법정동코드": "1117013100", "국유_건수": 0, "국유_지분면적": 0.0, "국유_지분율": 0.0, "국유_지번일치": 0, "점수": 0.5118, "커버기여": 48.4175, "누적커버율": 0.2778, "순위": 11 }, "geometry": { "type": "Point", "coordinates": [ 127.006934705015951, 37.533510766448728 ] } },
{ "type": "Feature", "properties": { "parcel_idx": 6965, "from_rep": 0, "PNU": "1117010200100010237", "JIBUN": "1-237대", "지목": "대", "면적": 97.397, "내접폭": 8.4222, "법정동코드": "1117010200", "국유_건수": 0, "국유_지분면적": 0.0, "국유_지분율": 0.0, "국유_지번일치": 0, "점수": 0.2945, "커버기여": 45.0621, "누적커버율": 0.2979, "순위": 12 }, "geometry": { "type": "Point", "coordinates": [ 126.983398746767278, 37.546123803575597 ] } },
{ "type": "Feature", "properties": { "parcel_idx": 28591, "from_rep": 0, "PNU": "1117013000107290000", "JIBUN": "729대", "지목": "대", "면적": 37567.7492, "내접폭": 139.1115, "법정동코드": "1117013000", "국유_건수": 0, "국유_지분면적": 0.0, "국유_지분율": 0.0, "국유_지번일치": 0, "점수": 0.2842, "커버기여": 43.2682, "누적커버율": 0.3172, "순위": 13 }, "geometry": { "type": "Point", "coordinates": [ 126.988831197712102, 37.540718445479712 ] } },
{ "type": "Feature", "properties": { "parcel_idx": 24558, "from_rep": 0, "PNU": "1117012800100650001", "JIBUN": "65-1 대", "지목": "대", "면적": 44844.8659, "내접폭": 189.906, "법정동코드": "1117012800", "국유_건수": 0, "국유_지분면적": 0.0, "국유_지분율": 0.0, "국유_지번일치": 0, "점수": 0.261, "커버기여": 42.2695, "누적커버율": 0.3361, "순위": 14 }, "geometry": { "type": "Point", "coordinates": [ 126.966208868466921, 37.523234715783623 ] } },
{ "type": "Feature", "properties": { "parcel_idx": 19037, "from_rep": 1, "PNU": "1117011800100750001", "JIBUN": "75-1대", "지목": "대", "면적": 189.6998, "내접폭": 9.5169, "법정동코드": "1117011800", "국유_건수": 0, "국유_지분면적": 0.0, "국유_지분율": 0.0, "국유_지번일치": 0, "점수": 0.3194, "커버기여": 41.2685, "누적커버율": 0.3545, "순위": 15 }, "geometry": { "type": "Point", "coordinates": [ 126.952887462420094, 37.533942509659148 ] } },
{ "type": "Feature", "properties": { "parcel_idx": 1533, "from_rep": 0, "PNU": "1117010100101050056", "JIBUN": "105-56도", "지목": "도", "면적": 2257.0538, "내접폭": 4.7766, "법정동코드": "1117010100", "국유_건수": 0, "국유_지분면적": 0.0, "국유_지분율": 0.0, "국유_지번일치": 0, "점수": 0.3948, "커버기여": 41.1091, "누적커버율": 0.3728, "순위": 16 }, "geometry": { "type": "Point", "coordinates": [ 126.977061165887193, 37.548285139833318 ] } },
{ "type": "Feature", "properties": { "parcel_idx": 23499, "from_rep": 0, "PNU": "1117012500100730001", "JIBUN": "73-1대", "지목": "대", "면적": 293.742, "내접폭": 15.2566, "법정동코드": "1117012500", "국유_건수": 0, "국유_지분면적": 0.0, "국유_지분율": 0.0, "국유_지번일치": 0, "점수": 0.3854, "커버기여": 40.1611, "누적커버율": 0.3907, "순위": 17 }, "geometry": { "type": "Point", "coordinates": [ 126.971409852388391, 37.530444105231965 ] } },
{ "type": "Feature", "properties": { "parcel_idx": 13439, "from_rep": 0, "PNU": "1117011000100010170", "JIBUN": "1-170도", "지목": "도", "면적": 872.0861, "내접폭": 8.8353, "법정동코드": "1117011000", "국유_건수": 0, "국유_지분면적": 0.0, "국유_지분율": 0.0, "국유_지번일치": 0, "점수": 0.2814, "커버기여": 40.0669, "누적커버율": 0.4086, "순위": 18 }, "geometry": { "type": "Point", "coordinates": [ 126.965745739155096, 37.546480401801311 ] } },
{ "type": "Feature", "properties": { "parcel_idx": 25652, "from_rep": 0, "PNU": "1117012900104030000", "JIBUN": "403대", "지목": "대", "면적": 19952.8196, "내접폭": 89.5546, "법정동코드": "1117012900", "국유_건수": 0, "국유_지분면적": 0.0, "국유_지분율": 0.0, "국유_지번일치": 0, "점수": 0.401, "커버기여": 39.4687, "누적커버율": 0.4262, "순위": 19 }, "geometry": { "type": "Point", "coordinates": [ 126.978879999997318, 37.519093048130401 ] } },
{ "type": "Feature", "properties": { "parcel_idx": 38111, "from_rep": 0, "PNU": "1117013300102350013", "JIBUN": "235-13잡", "지목": "잡", "면적": 4982.8099, "내접폭": 37.9393, "법정동코드": "1117013300", "국유_건수": 0, "국유_지분면적": 0.0, "국유_지분율": 0.0, "국유_지번일치": 0, "점수": 0.4283, "커버기여": 38.67, "누적커버율": 0.4435, "순위": 20 }, "geometry": { "type": "Point", "coordinates": [ 126.991096576031225, 37.520896606954452 ] } }
]
}
